OBJECT_NAME,OBJECT_ID,EPOCH,MEAN_MOTION,ECCENTRICITY,INCLINATION,RA_OF_ASC_NODE,ARG_OF_PERICENTER,MEAN_ANOMALY,EPHEMERIS_TYPE,CLASSIFICATION_TYPE,NORAD_CAT_ID,ELEMENT_SET_NO,REV_AT_EPOCH,BSTAR,MEAN_MOTION_DOT,MEAN_MOTION_DDOT
STARLINK-5834,2023-088Z,2026-07-15T18:12:51.032736,15.27572616,.00012896,43.0048,93.1451,274.9933,85.0772,0,U,57071,999,16991,-.138514E-6,-.266E-5,0
STARLINK-5843,2023-088AA,2026-07-16T01:52:31.480032,15.27564064,.0001194,43.0023,91.2309,262.5873,97.4843,0,U,57072,999,16915,.24817E-4,.421E-5,0
STARLINK-5838,2023-088AB,2026-07-16T01:46:58.306080,15.27584814,.0001233,43.0029,91.2042,268.3991,91.6720,0,U,57073,999,16915,-.29698E-5,-.344E-5,0
STARLINK-5773,2023-088AC,2026-07-16T03:01:11.076096,15.27577111,.0001022,43.0024,108.8438,265.3473,94.7262,0,U,57074,999,16993,.13281E-4,.103E-5,0
STARLINK-5542,2023-088AD,2026-07-15T01:19:06.598272,15.27577216,.0001672,43.0054,96.4574,265.8510,94.2150,0,U,57075,999,16998,.941536E-5,-.3E-7,0
STARLINK-6155,2023-088AE,2026-07-15T22:49:45.330240,15.27574872,.0001198,43.0051,92.0049,264.5501,95.5214,0,U,57076,999,16994,.11771E-4,.62E-6,0
STARLINK-6194,2023-088AF,2026-07-15T02:40:31.634400,15.27575478,.00012609,43.0051,96.8791,264.1889,95.8819,0,U,57077,999,17014,-.9688575E-5,-.529E-5,0
STARLINK-6245,2023-088AH,2026-07-16T02:40:23.325312,15.27590121,.0001486,43.0038,90.6277,270.7545,89.3136,0,U,57079,999,17014,-.73645E-4,-.2289E-4,0
STARLINK-6243,2023-088AJ,2026-07-15T22:59:00.405312,15.27577486,.0001178,43.0042,92.0512,273.8321,86.2396,0,U,57080,999,16994,.95601E-5,.1E-7,0
STARLINK-6184,2023-088AK,2026-07-16T01:17:22.316928,15.27587179,.0001036,43.0015,91.0508,260.2145,99.8589,0,U,57081,999,17013,.21808E-4,.338E-5,0
STARLINK-6248,2023-088AL,2026-07-15T23:22:51.173760,15.27573534,.0001534,43.0045,91.3172,264.3498,95.7179,0,U,57082,999,17012,.25055E-4,.427E-5,0
STARLINK-6253,2023-088AM,2026-07-16T01:37:42.949344,15.27576248,.0000907,43.0026,91.1452,249.4014,110.6741,0,U,57083,999,17013,-.14564E-5,-.302E-5,0
STARLINK-6240,2023-088AN,2026-07-16T01:11:36.067200,15.27750829,.0001957,42.9916,91.0369,290.2863,69.7778,0,U,57084,999,17013,.86217E-3,.23664E-3,0
STARLINK-6232,2023-088AP,2026-07-15T02:51:24.893568,15.27579527,.0001517,43.0050,96.0779,269.2949,90.7728,0,U,57085,999,16999,.48153497E-4,.1063E-4,0
STARLINK-6247,2023-088AQ,2026-07-16T01:22:56.125920,15.27580630,.0003469,42.9976,91.0843,39.8761,320.2345,0,U,57086,999,17013,.47214E-4,.1036E-4,0
STARLINK-6251,2023-088AR,2026-07-15T23:20:59.702208,15.27581473,.0001685,43.0053,91.3034,268.9147,91.1511,0,U,57087,999,17012,.25687E-4,.445E-5,0
STARLINK-6257,2023-088AS,2026-07-16T03:02:37.408704,15.27575780,.0001072,43.0013,90.7363,243.6759,116.3983,0,U,57088,999,17014,.10522E-4,.28E-6,0
STARLINK-6259,2023-088AT,2026-07-15T23:46:54.389856,15.27576705,.0001233,43.0015,91.4345,266.2137,93.8574,0,U,57089,999,17012,.28847E-4,.532E-5,0
STARLINK-6254,2023-088AU,2026-07-16T01:00:42.738912,15.27575402,.0001636,43.0020,90.9625,260.5573,99.5094,0,U,57090,999,17013,.49463E-4,.1099E-4,0
STARLINK-6262,2023-088AV,2026-07-16T01:09:57.593664,15.27577055,.0001189,43.0030,91.0081,268.1275,91.9440,0,U,57091,999,17013,.13642E-5,-.225E-5,0
STARLINK-6225,2023-088AW,2026-07-16T01:04:23.660256,15.27584679,.0001478,43.0038,90.9796,263.7253,96.3430,0,U,57092,999,17013,.60607E-4,.1406E-4,0
STARLINK-6229,2023-088AX,2026-07-16T01:26:36.924576,15.27576763,.0001227,43.0028,91.0912,240.9362,119.1367,0,U,57093,999,17013,.18159E-4,.238E-5,0
STARLINK-6235,2023-088AY,2026-07-16T01:32:11.729760,15.27565053,.0000996,43.0020,91.1176,256.4968,103.5773,0,U,57094,999,17013,-.31298E-4,-.1123E-4,0
STARLINK-6132,2023-090A,2026-07-15T06:31:09.850656,15.27578125,.00013089,43.0033,281.1120,274.2067,85.8635,0,U,57101,999,16984,-.535427E-6,-.277E-5,0
STARLINK-6111,2023-090B,2026-07-16T04:40:27.573312,15.27576844,.0000614,43.0019,275.9994,261.1970,98.8812,0,U,57102,999,16998,-.5924E-5,-.425E-5,0
STARLINK-6130,2023-090D,2026-07-15T06:36:43.096320,15.27573842,.00012539,43.0026,281.1405,271.9426,88.1282,0,U,57104,999,16983,.2421223E-4,.404E-5,0
STARLINK-6097,2023-090E,2026-07-16T04:44:09.108096,15.27575129,.0001402,42.9985,276.0095,160.9996,199.0908,0,U,57105,999,16998,.19814E-4,.283E-5,0
STARLINK-6118,2023-090F,2026-07-15T06:29:18.885408,15.27575846,.00011867,43.0031,281.1004,272.8519,87.2197,0,U,57106,999,16984,.4735456E-5,-.132E-5,0
STARLINK-6131,2023-090G,2026-07-16T05:26:30.960672,15.27586025,.0001292,43.0025,275.3739,267.3062,92.7642,0,U,57107,999,16999,.40136E-4,.843E-5,0
STARLINK-6099,2023-090H,2026-07-15T06:23:45.591360,15.27579099,.00011311,43.0013,281.0684,273.5124,86.5598,0,U,57108,999,16984,-.5384148E-5,-.41E-5,0
STARLINK-6139,2023-090J,2026-07-15T05:37:42.781152,15.27576823,.00018372,43.0040,281.6818,280.0619,80.0025,0,U,57109,999,16983,.37837973E-4,.779E-5,0
STARLINK-6134,2023-090K,2026-07-15T06:18:13.277088,15.27574667,.00009622,43.0019,281.0438,268.8947,91.1794,0,U,57110,999,16984,.9883327E-5,.1E-6,0
STARLINK-6140,2023-090L,2026-07-15T07:44:58.387200,15.27634360,.00018328,43.0012,280.6306,254.3393,105.7256,0,U,57111,999,16985,-.55824694E-3,-.15618E-3,0
STARLINK-6141,2023-090M,2026-07-15T06:34:51.867552,15.27575091,.00011349,43.0023,281.1268,262.7042,97.3681,0,U,57112,999,16984,-.2610338E-5,-.334E-5,0
STARLINK-6142,2023-090N,2026-07-15T05:59:41.592480,15.27581129,.00006127,43.0005,280.9432,199.4687,160.6141,0,U,57113,999,16984,-.16916554E-4,-.727E-5,0
STARLINK-6125,2023-090P,2026-07-15T17:04:21.448704,15.27576979,.00012515,42.9999,278.3869,270.9326,89.1382,0,U,57114,999,16991,.30996047E-4,.591E-5,0
STARLINK-6085,2023-090Q,2026-07-15T05:58:18.814368,15.18405243,.00208231,42.9973,275.8965,306.6441,53.2492,0,U,57115,999,16990,.22886324E-3,.4581E-4,0
STARLINK-6129,2023-090R,2026-07-16T05:20:57.105024,15.27576351,.0001741,43.0017,275.3510,276.9462,83.1192,0,U,57116,999,16999,.36069E-4,.73E-5,0
STARLINK-6148,2023-090S,2026-07-16T05:22:48.146304,15.27579079,.0001593,43.0029,275.3564,276.8041,83.2630,0,U,57117,999,16998,.33937E-4,.672E-5,0
STARLINK-6150,2023-090U,2026-07-15T06:47:49.089120,15.27574820,.00010135,43.0022,281.1849,243.7617,116.3130,0,U,57119,999,16984,-.82352573E-4,-.2527E-4,0
STARLINK-6147,2023-090V,2026-07-15T06:14:30.524064,15.27561846,.00012785,43.0014,281.0152,268.9022,91.1683,0,U,57120,999,16984,.17812511E-4,.228E-5,0
STARLINK-6152,2023-090W,2026-07-16T05:19:05.990304,15.27577598,.0001731,43.0011,275.3335,277.5354,82.5301,0,U,57121,999,16980,.31515E-4,.605E-5,0
STARLINK-6149,2023-090X,2026-07-16T04:57:06.581088,15.27575381,.0001443,43.0028,276.0722,287.2121,72.8573,0,U,57122,999,16998,.28785E-4,.53E-5,0
STARLINK-6154,2023-090Y,2026-07-15T06:25:36.559200,15.27577142,.00008686,43.0008,281.0701,263.6234,96.4519,0,U,57123,999,16965,.615458E-6,-.245E-5,0
STARLINK-6146,2023-090Z,2026-07-15T06:20:05.023392,15.27563263,.0001214,43.0004,281.0432,276.7603,83.3111,0,U,57124,999,16984,-.40527822E-4,-.1376E-4,0
STARLINK-6100,2023-090AA,2026-07-15T06:01:08.975712,15.27574079,.00018811,43.0036,262.8217,282.0972,77.9669,0,U,57125,999,16986,.7278593E-5,-.62E-6,0
STARLINK-6167,2023-090AB,2026-07-16T05:08:13.449120,15.27570214,.0002368,43.0061,276.1262,299.9479,60.1137,0,U,57126,999,16998,-.38954E-5,-.37E-5,0
STARLINK-6165,2023-090AC,2026-07-15T06:03:24.321312,15.27579296,.00013861,43.0023,280.9544,274.5234,85.5459,0,U,57127,999,16965,.29387954E-4,.547E-5,0
STARLINK-6163,2023-090AD,2026-07-16T05:24:39.430368,15.27582382,.0001579,43.0000,275.3528,276.9161,83.1511,0,U,57128,999,16980,.48146E-4,.1063E-4,0
STARLINK-6170,2023-090AE,2026-07-16T05:05:56.772096,15.27574311,.0001507,43.0007,258.0014,304.8502,55.2207,0,U,57129,999,17000,-.32491E-5,-.352E-5,0
STARLINK-6172,2023-090AF,2026-07-15T07:32:01.013568,15.27581566,.00011995,43.0015,280.5584,198.5427,161.5381,0,U,57130,999,16966,-.18616705E-3,-.5381E-4,0
STARLINK-6162,2023-090AG,2026-07-16T05:16:51.651264,15.27564552,.0002186,43.0054,257.2036,278.7881,81.2723,0,U,57131,999,17001,.34901E-4,.698E-5,0
STARLINK-6128,2023-090AH,2026-07-15T07:43:06.837024,15.27579270,.00012757,43.0016,280.6146,273.9195,86.1511,0,U,57132,999,16966,.23502485E-4,.385E-5,0
STARLINK-6143,2023-090AJ,2026-07-16T04:04:53.152896,15.27577255,.0001611,43.0022,257.6846,271.6952,88.3715,0,U,57133,999,17000,.24594E-4,.415E-5,0
STARLINK-6133,2023-090AK,2026-07-16T03:37:08.111712,15.27572417,.0001245,43.0018,257.5443,293.8856,66.1865,0,U,57134,999,17000,.22588E-4,.359E-5,0
STARLINK-6127,2023-090AL,2026-07-15T05:51:53.650944,15.27585684,.00013529,43.0021,262.7759,277.5503,82.5195,0,U,57135,999,16986,.3091782E-5,-.177E-5,0
STARLINK-6112,2023-090AM,2026-07-16T05:22:23.226816,15.27580386,.0001131,43.0027,257.2288,276.3258,83.7465,0,U,57136,999,17003,-.10332E-4,-.546E-5,0
STARLINK-5347,2023-090AN,2026-07-16T05:09:26.112384,15.27574541,.000124,43.0022,257.1631,289.2398,70.8319,0,U,57137,999,17001,-.16346E-6,-.267E-5,0
STARLINK-5336,2023-090AP,2026-07-15T12:12:13.338144,15.27577444,.0001636,43.0025,261.3198,282.1857,77.8811,0,U,57138,999,16990,.13899E-4,.12E-5,0
STARLINK-5355,2023-090AQ,2026-07-16T03:38:58.817760,15.27570038,.0001377,43.0034,257.5505,281.7719,78.2978,0,U,57139,999,17000,-.2757E-4,-.102E-4,0
STARLINK-5357,2023-090AS,2026-07-16T05:14:59.884224,15.27523875,.0000894,43.0042,257.1889,221.2163,138.8621,0,U,57141,999,17001,.38138E-3,.10229E-3,0
STARLINK-5361,2023-090AT,2026-07-16T03:46:23.298240,15.27557325,.0001891,43.0039,257.5836,298.8209,61.2452,0,U,57142,999,17000,.37266E-4,.763E-5,0
STARLINK-5358,2023-090AU,2026-07-16T03:51:55.806048,15.27575742,.0001695,43.0021,257.6110,275.0348,85.0310,0,U,57143,999,17000,.15541E-4,.165E-5,0
STARLINK-5150,2023-090AV,2026-07-16T05:18:41.135616,15.27575836,.0001591,43.0029,257.2063,279.7843,80.2829,0,U,57144,999,17001,.26499E-5,-.189E-5,0
STARLINK-5768,2023-090AW,2026-07-16T04:28:56.611776,15.27574120,.0001385,43.0016,257.7987,266.5788,93.4905,0,U,57145,999,17000,-.31663E-5,-.349E-5,0
